{"fetched_at":"2026-07-06T18:35:33.262Z","source":"https://celestrak.org/NORAD/elements/gp.php?NAME=GHGSAT&FORMAT=JSON","constellation":"ghgsat","records":[{"OBJECT_NAME":"GHGSAT-C1","OBJECT_ID":"2020-061G","EPOCH":"2026-07-06T06:13:02.429760","CLASSIFICATION_TYPE":"U","MEAN_MOTION":15.7290259,"ECCENTRICITY":0.00003724,"INCLINATION":97.2089,"RA_OF_ASC_NODE":273.0288,"ARG_OF_PERICENTER":149.2144,"MEAN_ANOMALY":210.9142,"EPHEMERIS_TYPE":0,"NORAD_CAT_ID":46278,"ELEMENT_SET_NO":999,"REV_AT_EPOCH":32647,"BSTAR":0.000263854,"MEAN_MOTION_DOT":0.00035708,"MEAN_MOTION_DDOT":0},{"OBJECT_NAME":"GHGSAT-C2","OBJECT_ID":"2021-006DA","EPOCH":"2026-07-06T02:00:33.833952","CLASSIFICATION_TYPE":"U","MEAN_MOTION":15.3803316,"ECCENTRICITY":0.00068899,"INCLINATION":97.2136,"RA_OF_ASC_NODE":234.0248,"ARG_OF_PERICENTER":99.754,"MEAN_ANOMALY":260.4484,"EPHEMERIS_TYPE":0,"NORAD_CAT_ID":47509,"ELEMENT_SET_NO":999,"REV_AT_EPOCH":30275,"BSTAR":0.00020226218,"MEAN_MOTION_DOT":0.00007494,"MEAN_MOTION_DDOT":0},{"OBJECT_NAME":"GHGSAT-C3","OBJECT_ID":"2022-057F","EPOCH":"2026-07-06T06:44:18.782016","CLASSIFICATION_TYPE":"U","MEAN_MOTION":15.34601307,"ECCENTRICITY":0.0006975,"INCLINATION":97.6625,"RA_OF_ASC_NODE":333.6574,"ARG_OF_PERICENTER":62.4122,"MEAN_ANOMALY":297.7828,"EPHEMERIS_TYPE":0,"NORAD_CAT_ID":52737,"ELEMENT_SET_NO":999,"REV_AT_EPOCH":22846,"BSTAR":0.00018205936,"MEAN_MOTION_DOT":0.00006022,"MEAN_MOTION_DDOT":0},{"OBJECT_NAME":"GHGSAT-C5","OBJECT_ID":"2022-057N","EPOCH":"2026-07-06T07:40:46.876800","CLASSIFICATION_TYPE":"U","MEAN_MOTION":15.34579301,"ECCENTRICITY":0.00076097,"INCLINATION":97.6711,"RA_OF_ASC_NODE":335.2945,"ARG_OF_PERICENTER":59.3753,"MEAN_ANOMALY":300.8239,"EPHEMERIS_TYPE":0,"NORAD_CAT_ID":52744,"ELEMENT_SET_NO":999,"REV_AT_EPOCH":22847,"BSTAR":0.00017608291,"MEAN_MOTION_DOT":0.00005818,"MEAN_MOTION_DDOT":0},{"OBJECT_NAME":"GHGSAT-C4","OBJECT_ID":"2022-057Q","EPOCH":"2026-07-06T07:14:03.024096","CLASSIFICATION_TYPE":"U","MEAN_MOTION":15.34589204,"ECCENTRICITY":0.00069474,"INCLINATION":97.6551,"RA_OF_ASC_NODE":332.4909,"ARG_OF_PERICENTER":48.2381,"MEAN_ANOMALY":311.9454,"EPHEMERIS_TYPE":0,"NORAD_CAT_ID":52746,"ELEMENT_SET_NO":999,"REV_AT_EPOCH":22847,"BSTAR":0.00018090756,"MEAN_MOTION_DOT":0.00005981,"MEAN_MOTION_DDOT":0},{"OBJECT_NAME":"GHGSAT-C8","OBJECT_ID":"2023-054J","EPOCH":"2026-07-06T05:31:37.489728","CLASSIFICATION_TYPE":"U","MEAN_MOTION":15.53566738,"ECCENTRICITY":0.0004295,"INCLINATION":97.2961,"RA_OF_ASC_NODE":96.7829,"ARG_OF_PERICENTER":32.6723,"MEAN_ANOMALY":327.4795,"EPHEMERIS_TYPE":0,"NORAD_CAT_ID":56186,"ELEMENT_SET_NO":999,"REV_AT_EPOCH":18139,"BSTAR":0.00024011584,"MEAN_MOTION_DOT":0.00015195,"MEAN_MOTION_DDOT":0},{"OBJECT_NAME":"GHGSAT-C6","OBJECT_ID":"2023-054AC","EPOCH":"2026-07-06T06:15:32.181696","CLASSIFICATION_TYPE":"U","MEAN_MOTION":15.53546415,"ECCENTRICITY":0.00044771,"INCLINATION":97.3025,"RA_OF_ASC_NODE":97.5096,"ARG_OF_PERICENTER":352.5961,"MEAN_ANOMALY":7.5226,"EPHEMERIS_TYPE":0,"NORAD_CAT_ID":56204,"ELEMENT_SET_NO":999,"REV_AT_EPOCH":18141,"BSTAR":0.00022004838,"MEAN_MOTION_DOT":0.00013905,"MEAN_MOTION_DDOT":0},{"OBJECT_NAME":"GHGSAT-C7","OBJECT_ID":"2023-054AH","EPOCH":"2026-07-06T05:46:26.593248","CLASSIFICATION_TYPE":"U","MEAN_MOTION":15.50308402,"ECCENTRICITY":0.00059236,"INCLINATION":97.2978,"RA_OF_ASC_NODE":95.8571,"ARG_OF_PERICENTER":344.1721,"MEAN_ANOMALY":15.9345,"EPHEMERIS_TYPE":0,"NORAD_CAT_ID":56209,"ELEMENT_SET_NO":999,"REV_AT_EPOCH":18134,"BSTAR":0.00017937908,"MEAN_MOTION_DOT":0.00010074,"MEAN_MOTION_DDOT":0},{"OBJECT_NAME":"GHGSAT-C12","OBJECT_ID":"2025-135B","EPOCH":"2026-07-06T01:43:20.194464","CLASSIFICATION_TYPE":"U","MEAN_MOTION":15.20405413,"ECCENTRICITY":0.00064618,"INCLINATION":97.4764,"RA_OF_ASC_NODE":301.7136,"ARG_OF_PERICENTER":105.3218,"MEAN_ANOMALY":254.8732,"EPHEMERIS_TYPE":0,"NORAD_CAT_ID":64529,"ELEMENT_SET_NO":999,"REV_AT_EPOCH":5769,"BSTAR":0.00019746365,"MEAN_MOTION_DOT":0.00004236,"MEAN_MOTION_DDOT":0},{"OBJECT_NAME":"GHGSAT-C13","OBJECT_ID":"2025-135W","EPOCH":"2026-07-06T01:33:49.213152","CLASSIFICATION_TYPE":"U","MEAN_MOTION":15.21334875,"ECCENTRICITY":0.00022355,"INCLINATION":97.4793,"RA_OF_ASC_NODE":302.3057,"ARG_OF_PERICENTER":77.6255,"MEAN_ANOMALY":282.5231,"EPHEMERIS_TYPE":0,"NORAD_CAT_ID":64548,"ELEMENT_SET_NO":999,"REV_AT_EPOCH":5772,"BSTAR":0.00031054199,"MEAN_MOTION_DOT":0.00006885,"MEAN_MOTION_DDOT":0}]}
